LEMUR-2-HUBBLE-4        
1 64565U 25135AP  26189.84410532  .00000992  00000+0  99192-4 0  9998
2 64565  97.7714 303.4972 0002119 179.8758 180.2463 14.93672147 57100
LEMUR-2-SEJONG-2        
1 64586U 25135BL  26189.96472630  .00002010  00000+0  18032-3 0  9997
2 64586  97.7703 304.8407 0003378 247.1690 112.9175 14.96882583 57204
LEMUR-2-HUBBLE-5        
1 64840U 25135BT  26189.85518633  .00001272  00000+0  12403-3 0  9997
2 64840  97.7734 304.1704 0004106 262.4138  97.6616 14.94199595 57145
LEMUR-2-KARENDARRELL    
1 64841U 25135BU  26189.86116779  .00004672  00000+0  37564-3 0  9996
2 64841  97.7693 306.0385 0011750 124.4354 235.7982 15.00440878 57261
LEMUR-2-LUCILLE-ROSE    
1 65403U 25135BV  26189.56783382  .00004417  00000+0  35527-3 0  9992
2 65403  97.7715 305.7812 0013970 209.6508 150.3925 15.00436483 51849
LEMUR-2-AFFIE-WAUWIE    
1 66295U 25248C   26189.50541898  .00015242  00000+0  55604-3 0  9991
2 66295  45.3917 359.4149 0008528 217.2941 142.7357 15.28058168 37859
OTTER SDM               
1 66678U 25276N   26189.64599102  .00004244  00000+0  20018-3 0  9994
2 66678  97.4202 262.7679 0004249 285.4662  74.6103 15.20005374 33677
LEMUR-2-STAS-GORBUK     
1 66686U 25276W   26189.73157241  .00003772  00000+0  18027-3 0  9999
2 66686  97.4237 262.9047 0003436 281.4027  78.6822 15.19615471 33689
LEMUR-2-TEODOR          
1 66768U 25276DG  26189.75747150  .00004196  00000+0  19070-3 0  9996
2 66768  97.4141 263.1937 0002322  94.4026 265.7475 15.21291840 33720
LEMUR-2-LAILA           
1 66776U 25276DQ  26189.72822619  .00003860  00000+0  17456-3 0  9999
2 66776  97.4166 263.2996 0002898 104.2252 255.9306 15.21517643 33727
LEMUR-2-CELIJO-SB-PK    
1 66781U 25276DW  26189.71530559  .00004042  00000+0  32738-3 0  9996
2 66781  97.5199 259.7831 0007336  80.2189 279.9863 15.00241883 25858
LEMUR-2-FINNIAN         
1 66782U 25276DX  26189.02019376  .00002186  00000+0  17772-3 0  9998
2 66782  97.5341 259.3594 0007985  26.3338 333.8291 15.00562767 23127
LEMUR-2-STARLIGHT       
1 66783U 25276DY  26189.72886729  .00004473  00000+0  37014-3 0  9992
2 66783  97.5227 259.6310 0014753  66.1054 294.1714 14.99303210 33424
LEMUR-2-TARTIFLETTE     
1 66784U 25276DZ  26189.72720889  .00003667  00000+0  30443-3 0  9990
2 66784  97.5228 259.6372 0013783  73.9677 286.3064 14.99291776 33427
LEMUR-2-VUKASIN         
1 66785U 25276EA  26189.76947050  .00003433  00000+0  27694-3 0  9991
2 66785  97.5244 260.0251 0004051  73.4291 286.7378 15.00508276 33389
LEMUR-2-HOTSPUR-TOM     
1 66786U 25276EB  26189.72119961  .00003882  00000+0  32281-3 0  9996
2 66786  97.5218 259.6080 0013879  65.1391 295.1274 14.99199376 33352
